$$SOE
2460728.500000000, A.D. 2025-Feb-22 00:00:00.0000, -1.166275438205249E+08, 4.512908653450575E+08, -2.044291514785120E+07,
2460735.500000000, A.D. 2025-Mar-01 00:00:00.0000, -1.267633731508569E+08, 4.490448559669936E+08, -2.000419372283587E+07,
2460742.500000000, A.D. 2025-Mar-08 00:00:00.0000, -1.368386084726495E+08, 4.465850283306165E+08, -1.955592648469150E+07,
2460749.500000000, A.D. 2025-Mar-15 00:00:00.0000, -1.468486431186625E+08, 4.439131861674290E+08, -1.909835583407685E+07,
2460756.500000000, A.D. 2025-Mar-22 00:00:00.0000, -1.567889337655159E+08, 4.410312369528320E+08, -1.863172737915981E+07,
2460763.500000000, A.D. 2025-Mar-29 00:00:00.0000, -1.666550035260543E+08, 4.379411876425078E+08, -1.815628979930007E+07,
2460770.500000000, A.D. 2025-Apr-05 00:00:00.0000, -1.764424432434501E+08, 4.346451412496225E+08, -1.767229479232281E+07,
2460777.500000000, A.D. 2025-Apr-12 00:00:00.0000, -1.861469129126101E+08, 4.311452943733469E+08, -1.717999692104405E+07,
2460784.500000000, A.D. 2025-Apr-19 00:00:00.0000, -1.957641434153624E+08, 4.274439348018491E+08, -1.667965341437188E+07,
2460791.500000000, A.D. 2025-Apr-26 00:00:00.0000, -2.052899382979658E+08, 4.235434389908941E+08, -1.617152396487311E+07,
2460798.500000000, A.D. 2025-May-03 00:00:00.0000, -2.147201754779048E+08, 4.194462694416814E+08, -1.565587053202635E+07,
2460805.500000000, A.D. 2025-May-10 00:00:00.0000, -2.240508088522671E+08, 4.151549719910834E+08, -1.513295715328413E+07,
2460812.500000000, A.D. 2025-May-17 00:00:00.0000, -2.332778697722429E+08, 4.106721729778320E+08, -1.460304976971686E+07,
2460819.500000000, A.D. 2025-May-24 00:00:00.0000, -2.423974682113219E+08, 4.060005762349879E+08, -1.406641608691627E+07,
2460826.500000000, A.D. 2025-May-31 00:00:00.0000, -2.514057932106720E+08, 4.011429602241610E+08, -1.352332548474586E+07,
2460833.500000000, A.D. 2025-Jun-07 00:00:00.0000, -2.602991130042143E+08, 3.961021765203127E+08, -1.297404884119730E+07,
2460840.500000000, A.D. 2025-Jun-14 00:00:00.0000, -2.690737771898646E+08, 3.908811489851845E+08, -1.241885810807821E+07,
2460847.500000000, A.D. 2025-Jun-21 00:00:00.0000, -2.777262197304192E+08, 3.854828703617772E+08, -1.185802601726781E+07,
2460854.500000000, A.D. 2025-Jun-28 00:00:00.0000, -2.862529596571829E+08, 3.799103980558857E+08, -1.129182605991314E+07,
2460861.500000000, A.D. 2025-Jul-05 00:00:00.0000, -2.946506009968996E+08, 3.741668512648278E+08, -1.072053242342502E+07,
2460868.500000000, A.D. 2025-Jul-12 00:00:00.0000, -3.029158331154786E+08, 3.682554086529025E+08, -1.014441984315903E+07,
2460875.500000000, A.D. 2025-Jul-19 00:00:00.0000, -3.110454312904964E+08, 3.621793060018346E+08, -9.563763433192164E+06,
2460882.500000000, A.D. 2025-Jul-26 00:00:00.0000, -3.190362573045121E+08, 3.559418337822704E+08, -8.978838520010293E+06,
2460889.500000000, A.D. 2025-Aug-02 00:00:00.0000, -3.268852599961295E+08, 3.495463346706059E+08, -8.389920483272016E+06,
2460896.500000000, A.D. 2025-Aug-09 00:00:00.0000, -3.345894757478324E+08, 3.429962009991614E+08, -7.797284606898114E+06,
2460903.500000000, A.D. 2025-Aug-16 00:00:00.0000, -3.421460288361365E+08, 3.362948720790457E+08, -7.201205952581167E+06,
2460910.500000000, A.D. 2025-Aug-23 00:00:00.0000, -3.495521313539422E+08, 3.294458314145294E+08, -6.601959281022385E+06,
2460917.500000000, A.D. 2025-Aug-30 00:00:00.0000, -3.568050823788913E+08, 3.224526045249916E+08, -5.999818992500305E+06,
2460924.500000000, A.D. 2025-Sep-06 00:00:00.0000, -3.639022678094100E+08, 3.153187583769412E+08, -5.395058874806538E+06,
2460931.500000000, A.D. 2025-Sep-13 00:00:00.0000, -3.708411625427955E+08, 3.080478999466316E+08, -4.787951708161056E+06,
2460938.500000000, A.D. 2025-Sep-20 00:00:00.0000, -3.776193317232702E+08, 3.006436722712712E+08, -4.178769161387041E+06,
2460945.500000000, A.D. 2025-Sep-27 00:00:00.0000, -3.842344300028915E+08, 2.931097511005539E+08, -3.567781821705073E+06,
2460952.500000000, A.D. 2025-Oct-04 00:00:00.0000, -3.906842008355033E+08, 2.854498426893005E+08, -2.955259129026428E+06,
2460959.500000000, A.D. 2025-Oct-11 00:00:00.0000, -3.969664761795593E+08, 2.776676817906224E+08, -2.341469257492959E+06,
2460966.500000000, A.D. 2025-Oct-18 00:00:00.0000, -4.030791763270219E+08, 2.697670295761066E+08, -1.726678992522225E+06,
2460973.500000000, A.D. 2025-Oct-25 00:00:00.0000, -4.090203097202338E+08, 2.617516714937703E+08, -1.111153615106210E+06,
2460980.500000000, A.D. 2025-Nov-01 00:00:00.0000, -4.147879727200683E+08, 2.536254150789858E+08, -4.951567957164198E+05,
2460987.500000000, A.D. 2025-Nov-08 00:00:00.0000, -4.203803492946066E+08, 2.453920876874792E+08, 1.210494962910116E+05,
2460994.500000000, A.D. 2025-Nov-15 00:00:00.0000, -4.257957104844384E+08, 2.370555340933104E+08, 7.372050491708368E+05,
2461001.500000000, A.D. 2025-Nov-22 00:00:00.0000, -4.310324132451887E+08, 2.286196141737539E+08, 1.353051411989599E+06,
2461008.500000000, A.D. 2025-Nov-29 00:00:00.0000, -4.360888988231012E+08, 2.200882018174861E+08, 1.968331951135576E+06,
2461015.500000000, A.D. 2025-Dec-06 00:00:00.0000, -4.409636929440790E+08, 2.114651849211668E+08, 2.582792157694727E+06,
2461022.500000000, A.D. 2025-Dec-13 00:00:00.0000, -4.456554073853244E+08, 2.027544631058150E+08, 3.196179890322775E+06,
2461029.500000000, A.D. 2025-Dec-20 00:00:00.0000, -4.501627394367590E+08, 1.939599441769315E+08, 3.808245316949517E+06,
2461036.500000000, A.D. 2025-Dec-27 00:00:00.0000, -4.544844703267236E+08, 1.850855419184426E+08, 4.418740865722202E+06,
2461043.500000000, A.D. 2026-Jan-03 00:00:00.0000, -4.586194640742698E+08, 1.761351746045502E+08, 5.027421268693469E+06,
2461050.500000000, A.D. 2026-Jan-10 00:00:00.0000, -4.625666666611753E+08, 1.671127635515282E+08, 5.634043632745437E+06,
2461057.500000000, A.D. 2026-Jan-17 00:00:00.0000, -4.663251052930868E+08, 1.580222316187466E+08, 6.238367509103306E+06,
2461064.500000000, A.D. 2026-Jan-24 00:00:00.0000, -4.698938876736294E+08, 1.488675016821183E+08, 6.840154956353076E+06,
2461071.500000000, A.D. 2026-Jan-31 00:00:00.0000, -4.732722012698832E+08, 1.396524950730381E+08, 7.439170594415493E+06,
2461078.500000000, A.D. 2026-Feb-07 00:00:00.0000, -4.764593125095491E+08, 1.303811299259935E+08, 8.035181639359273E+06,
2461085.500000000, A.D. 2026-Feb-14 00:00:00.0000, -4.794545656583994E+08, 1.210573194200701E+08, 8.627957894800045E+06,
2461092.500000000, A.D. 2026-Feb-21 00:00:00.0000, -4.822573809917538E+08, 1.116849704917055E+08, 9.217271711698756E+06,
2461099.500000000, A.D. 2026-Feb-28 00:00:00.0000, -4.848672533460405E+08, 1.022679841719622E+08, 9.802898110478900E+06,
2461106.500000000, A.D. 2026-Mar-07 00:00:00.0000, -4.872837531110888E+08, 9.281025559788309E+07, 1.038461509499045E+07,
2461113.500000000, A.D. 2026-Mar-14 00:00:00.0000, -4.895065268894117E+08, 8.331567136543879E+07, 1.096220371322900E+07,
2461120.500000000, A.D. 2026-Mar-21 00:00:00.0000, -4.915352960392844E+08, 7.378810712175882E+07, 1.153544793839120E+07,
2461127.500000000, A.D. 2026-Mar-28 00:00:00.0000, -4.933698551109700E+08, 6.423142642324874E+07, 1.210413463882984E+07,
2461134.500000000, A.D. 2026-Apr-04 00:00:00.0000, -4.950100707819459E+08, 5.464947989202185E+07, 1.266805361349927E+07,
2461141.500000000, A.D. 2026-Apr-11 00:00:00.0000, -4.964558810196907E+08, 4.504610430976897E+07, 1.322699763858421E+07,
2461148.500000000, A.D. 2026-Apr-18 00:00:00.0000, -4.977072943145344E+08, 3.542512164173269E+07, 1.378076251047372E+07,
2461155.500000000, A.D. 2026-Apr-25 00:00:00.0000, -4.987643889380648E+08, 2.579033800478220E+07, 1.432914708241130E+07,
2461162.500000000, A.D. 2026-May-02 00:00:00.0000, -4.996273121975067E+08, 1.614554254923464E+07, 1.487195328989373E+07,
2461169.500000000, A.D. 2026-May-09 00:00:00.0000, -5.002962795624130E+08, 6.494506187485125E+06, 1.540898614825135E+07,
2461176.500000000, A.D. 2026-May-16 00:00:00.0000, -5.007715732864741E+08, -3.159019692901979E+06, 1.594005369927707E+07,
2461183.500000000, A.D. 2026-May-23 00:00:00.0000, -5.010535404731416E+08, -1.281130351000984E+07, 1.646496698586301E+07,
2461190.500000000, A.D. 2026-May-30 00:00:00.0000, -5.011425926642172E+08, -2.245863244375296E+07, 1.698354027144920E+07,
2461197.500000000, A.D. 2026-Jun-06 00:00:00.0000, -5.010392072704135E+08, -3.209731334183653E+07, 1.749559126584025E+07,
2461204.500000000, A.D. 2026-Jun-13 00:00:00.0000, -5.007439271791015E+08, -4.172367537617408E+07, 1.800094103743628E+07,
2461211.500000000, A.D. 2026-Jun-20 00:00:00.0000, -5.002573590388390E+08, -5.133407152330171E+07, 1.849941389692140E+07,
2461218.500000000, A.D. 2026-Jun-27 00:00:00.0000, -4.995801719171971E+08, -6.092487921002276E+07, 1.899083738016301E+07,
2461225.500000000, A.D. 2026-Jul-04 00:00:00.0000, -4.987130963318126E+08, -7.049250090143627E+07, 1.947504226667350E+07,
2461232.500000000, A.D. 2026-Jul-11 00:00:00.0000, -4.976569234017969E+08, -8.003336476531987E+07, 1.995186259929224E+07,
2461239.500000000, A.D. 2026-Jul-18 00:00:00.0000, -4.964125040283878E+08, -8.954392538872722E+07, 2.042113569848748E+07,
2461246.500000000, A.D. 2026-Jul-25 00:00:00.0000, -4.949807480821453E+08, -9.902066454513130E+07, 2.088270216912445E+07,
2461253.500000000, A.D. 2026-Aug-01 00:00:00.0000, -4.933626235500540E+08, -1.084600920607906E+08, 2.133640589127212E+07,
2461260.500000000, A.D. 2026-Aug-08 00:00:00.0000, -4.915591554285591E+08, -1.178587468165011E+08, 2.178209397237013E+07,
2461267.500000000, A.D. 2026-Aug-15 00:00:00.0000, -4.895714239477842E+08, -1.272131974345763E+08, 2.221961665948942E+07,
2461274.500000000, A.D. 2026-Aug-22 00:00:00.0000, -4.874005628877026E+08, -1.365200414301993E+08, 2.264882738128855E+07,
2461281.500000000, A.D. 2026-Aug-29 00:00:00.0000, -4.850477602752604E+08, -1.457759042009415E+08, 2.306958301740262E+07,
2461288.500000000, A.D. 2026-Sep-05 00:00:00.0000, -4.825142593299100E+08, -1.549774407238580E+08, 2.348174396522910E+07,
2461295.500000000, A.D. 2026-Sep-12 00:00:00.0000, -4.798013572035115E+08, -1.641213374647422E+08, 2.388517398307856E+07,
$$EOE